STARLINK-1008
1 44714U 19074B   26099.55497484  .00049101  00000+0  14564-2 0  9999
2 44714  53.1561  34.8845 0003145 135.5572 224.5683 15.34363751353601
STARLINK-1012
1 44718U 19074F   26099.55139536  .00047695  00000+0  14496-2 0  9994
2 44718  53.1606  35.1417 0003546 131.3119 228.8188 15.33604789353593
STARLINK-1017
1 44723U 19074L   26099.20368405  .00042096  00000+0  15641-2 0  9994
2 44723  53.0531  30.3754 0003368 132.6876 227.4406 15.27154699353627
STARLINK-1019
1 44724U 19074M   26099.83335647  .00217220  29035-4  60804-3 0  9995
2 44724  53.0383 338.8984 0003444 246.8363 326.6977 15.93233886  6065
STARLINK-1020
1 44725U 19074N   26099.61117497  .00056206  00000+0  17504-2 0  9992
2 44725  53.1607  60.0426 0002836 122.5110 237.6166 15.32758045353232
STARLINK-1036
1 44741U 19074AE  26099.25416161  .00123430  00000+0  13302-2 0  9996
2 44741  53.0464  39.8674 0005050  89.8415 270.3177 15.62805113353499
STARLINK-1039
1 44744U 19074AH  26099.65393675  .00042082  00000+0  16885-2 0  9999
2 44744  53.0634  72.4899 0001371  43.8952 316.2153 15.24600929353075
STARLINK-1042
1 44747U 19074AL  26099.78339930  .00022344  00000+0  37746-3 0  9999
2 44747  53.0442 305.4184 0000885 197.1907 162.9071 15.51559028354892
STARLINK-1043
1 44748U 19074AM  26099.57804148  .00029742  00000+0  42771-3 0  9998
2 44748  53.0521  45.2303 0002671 116.8785 243.2499 15.55843736353454
STARLINK-1046
1 44751U 19074AQ  26099.00003471  .00066530  00000+0  12670-2 0  9990
2 44751  53.0508  66.4438 0001499 308.3939   7.8089 15.47608712  5911
STARLINK-1047
1 44752U 19074AR  26099.46505946  .00009711  00000+0  30766-3 0  9990
2 44752  53.0711   2.1590 0002081   0.5050 359.5952 15.33396916354061
STARLINK-1048
1 44753U 19074AS  26098.96180982  .00088186  00000+0  11021-2 0  9999
2 44753  53.0487  22.2139 0003324 130.6537 229.4764 15.59115649353717
STARLINK-1063
1 44768U 19074BH  26099.81598871  .00056325  00000+0  17221-2 0  9998
2 44768  53.1574  74.5336 0003596 102.2432 257.8973 15.33342274353085
STARLINK-1067
1 44771U 19074BL  26099.83335647  .00147252  00000+0  14914-2 0  9990
2 44771  53.0468  52.3874 0006423  98.6589 320.6408 15.64284780  5878
STARLINK-1068
1 44772U 19074BM  26099.82985440  .00056537  00000+0  49892-3 0  9991
2 44772  53.0464  26.8206 0004162  60.1758 299.9671 15.68158346353722
STARLINK-1114
1 44927U 20001P   26099.69636798  .00083631  00000+0  11635-2 0  9997
2 44927  53.0455 179.8853 0004272 278.6484  81.4043 15.56268034344916
STARLINK-1123
1 44930U 20001S   26099.54441277  .00045339  00000+0  14903-2 0  9995
2 44930  53.1492 201.9042 0003481  13.4243 346.6850 15.31121616344591
STARLINK-1094
1 44941U 20001AD  26099.49594967  .00044755  00000+0  13975-2 0  9995
2 44941  53.1566 176.2931 0002124  33.9906 326.1231 15.32775999344958
STARLINK-1122
1 44949U 20001AM  26099.47293484  .00013235  00000+0  45587-3 0  9995
2 44949  53.1590 176.6212 0001463  98.6827 261.4339 15.30364841344941
STARLINK-1080
1 44961U 20001AZ  26099.37444583  .00077835  00000+0  12257-2 0  9999
2 44961  53.0499 140.9764 0001366 303.3760  56.7118 15.52914392345433
